ONEWEB-0528             
1 54643U 22166B   23345.75313307 -.00000118  00000+0 -31839-3 0  9993
2 54643  87.9256  66.8096 0001704 110.2901 249.8416 13.21824656 50212
ONEWEB-0539             
1 54644U 22166C   23346.16788879  .00000131  00000+0  28682-3 0  9995
2 54644  87.9260  66.7269 0001650 104.4313 255.7004 13.21824981 50716
ONEWEB-0540             
1 54645U 22166D   23346.16236575  .00000036  00000+0  55244-4 0  9996
2 54645  87.9259  66.7551 0001521 102.8837 257.2467 13.21824461 50723
ONEWEB-0542             
1 54646U 22166E   23346.17735208  .00000108  00000+0  22910-3 0  9998
2 54646  87.9256  66.7253 0001674  84.1217 276.0108 13.21826070 50722
ONEWEB-0545             
1 54647U 22166F   23346.14422699 -.00000007  00000+0 -47445-4 0  9994
2 54647  87.9248  66.7718 0001290  94.4928 265.6353 13.21827928 50692
ONEWEB-0580             
1 54648U 22166G   23345.73894266  .00000049  00000+0  87156-4 0  9999
2 54648  87.9255  66.8065 0001689  82.8926 277.2400 13.21826886 50210
ONEWEB-0582             
1 54649U 22166H   23346.16001319  .00000093  00000+0  19353-3 0  9999
2 54649  87.9257  66.7643 0001403 107.1420 252.9867 13.21828333 50719
ONEWEB-0583             
1 54650U 22166J   23345.79255723  .00000038  00000+0  60652-4 0  9997
2 54650  87.9251  66.8428 0001924 117.4908 242.6422 13.21826376 50202
